FENGYUN 1C DEB          
1 31965U 99025CNS 17344.43421887  .00000972  00000-0  49513-3 0  9998
2 31965  99.0265  66.8061 0046963 195.9810 163.9885 14.17645825218425
